{"fetched_at":"2026-03-29T16:36:15Z","count":15609,"tles":[{"name":"STARLINK-6198","line1":"1 56768U 23078B   26087.82642393 -.00000050  00000+0  36446-5 0  9995","line2":"2 56768  69.9983 276.0664 0002758 273.0157  87.0687 14.98332873156046","category":"Starlink"}]}